P/2017 Y3 (Leonard),e,27.5608,153.8480,67.6008,9.846729,0.0318982,0.87012349,34.7474,02/04.0/2021,2000,g 16.5,4.0
# From MPC114601
C/2018 A1 (PANSTARRS),e,53.6075,336.6518,96.2670,25.10148,0.0078371,0.90380376,9.4246,02/04.0/2021,2000,g 12.5,4.0
# From MPC119996
C/2018 A3 (ATLAS),e,139.5432,194.2940,86.3891,463.6662,0.0000987,0.99293561,0.0000,01/12.5813/2019,2000,g  8.5,4.0
# From MPC114601
C/2018 A4 (PANSTARRS),e,3.1483,97.6285,356.0390,12.20287,0.0231212,0.80334931,22.9481,02/04.0/2021,2000,g 14.0,4.0
# From MPC109147
P/2018 A5 (PANSTARRS),e,23.5809,87.8236,359.5691,5.635299,0.0736764,0.52227857,90.6194,02/04.0/2021,2000,g 15.0,4.0
# From MPEC 2021-BE3
C/2018 A6 (Gibbs),e,76.9887,340.3762,264.5575,15.31364,0.0164470,0.80285493,9.3879,02/04.0/2021,2000,g  9.0,4.0
# From MPC118841
C/2018 B1 (Lemmon),h,03/29.4678/2018,162.4200,133.1909,68.3106,1.000902,5.116279,2000,9.0,4.0
# From MPC114601
P/2018 C1 (Lemmon-Read),e,5.1215,270.3819,235.6822,5.654224,0.0733068,0.53320686,78.7309,02/04.0/2021,2000,g 13.5,4.0
# From MPC114601
C/2018 C2 (Lemmon),h,06/01.6962/2018,34.4595,91.1480,134.1133,1.000753,1.958246,2000,13.0,4.0
# From MPEC 2020-AA5
C/2018 DO4 (Lemmon),e,160.4737,251.1576,176.0245,25.74917,0.0075433,0.90649297,4.0408,02/04.0/2021,2000,g 11.0,4.0
# From MPC114602
C/2018 E1 (ATLAS),e,72.5142,146.8639,299.3956,53.94774,0.0024874,0.94991582,2.5463,02/04.0/2021,2000,g 10.5,4.0
# From MPC114602
C/2018 E2 (Barros),e,97.7079,67.1949,277.4675,4017,0.0000039,0.99902419,0.0000,12/24.0143/2017,2000,g 10.5,4.0
# From MPC114602
C/2018 EN4 (NEOWISE),e,81.6479,136.1430,35.0076,18.21238,0.0126810,0.92035548,12.3402,02/04.0/2021,2000,g 15.0,4.0
# From MPC114602
C/2018 EF9 (Lemmon),e,84.6394,172.5656,72.6200,550.1322,0.0000764,0.99716850,0.0000,05/22.7861/2018,2000,g 18.0,2.0
# From MPC115883
C/2018 F1 (Grauer),e,46.0770,177.2759,71.6341,284.0361,0.0002059,0.98945812,0.0000,12/13.7613/2018,2000,g 11.5,4.0
# From MPC110084
C/2018 F3 (Johnson),p,08/15.2314/2017,105.5348,293.0113,2.483172,173.0311,2000,13.0,4.0
# From MPEC 2021-AJ0
C/2018 F4 (PANSTARRS),h,12/04.1272/2019,78.0939,26.5135,263.2256,1.001405,3.440452,2000,11.0,6.0
# From MPC114602
P/2018 H2 (PANSTARRS),e,7.3882,68.3995,119.9739,4.393048,0.1070422,0.54003988,118.6515,02/04.0/2021,2000,g 16.6,2.0
# From MPC114602
C/2018 K1 (Weiland),e,164.1958,260.0424,325.0801,29.96912,0.0060075,0.93720289,6.2130,02/04.0/2021,2000,g 14.9,4.0
# From MPC118094
C/2018 KJ3 (Lemmon),e,136.7083,91.6011,217.6645,833.4298,0.0000410,0.99564526,0.0000,09/09.7018/2019,2000,g 12.2,2.0
# From MPC114602
P/2018 L1 (PANSTARRS),e,10.5925,268.6310,17.9833,3.650758,0.1412959,0.48286384,115.0691,02/04.0/2021,2000,g 15.0,4.0
# From MPC118841
C/2018 L2 (ATLAS),e,67.3865,243.0236,56.2738,259.4910,0.0002358,0.99339946,0.0000,12/02.6845/2018,2000,g 10.0,4.0
# From MPC114603
P/2018 L4 (PANSTARRS),e,26.6248,145.1559,140.5628,4.940602,0.0897500,0.66016032,82.4015,02/04.0/2021,2000,g 17.5,4.0
# From MPC119996
P/2018 L5 (Leonard),e,2.2082,219.1254,93.8043,3.627778,0.1426405,0.36478046,143.4805,02/04.0/2021,2000,g 14.5,4.0
# From MPC117070
C/2018 M1 (Catalina),e,37.2915,339.4163,14.1639,21.35639,0.0099865,0.93901255,9.3842,02/04.0/2021,2000,g 15.5,4.0
# From MPC112393
C/2018 N1 (NEOWISE),e,159.4442,292.4458,354.6262,350.5504,0.0001502,0.99626330,0.0000,08/01.9418/2018,2000,g 15.5,4.0
# From MPEC 2021-BE3
C/2018 N2 (ASASSN),h,11/10.9696/2019,77.5286,25.2445,24.4035,1.000117,3.124802,2000,6.0,4.0
# From MPC114603
C/2018 O1 (ATLAS),e,154.0388,87.6465,162.5836,27.90827,0.0066850,0.94408734,5.9324,02/04.0/2021,2000,g 17.0,4.0
# From MPC114603
P/2018 P3 (PANSTARRS),e,8.9090,59.1838,305.8743,3.006227,0.1890912,0.41648027,160.3892,02/04.0/2021,2000,g 14.5,4.0
# From MPC114603
P/2018 P4 (PANSTARRS),e,23.1072,353.0750,8.2192,6.671761,0.0571931,0.45041193,46.8440,02/04.0/2021,2000,g 12.0,4.0
# From MPC118094
C/2018 P5 (PANSTARRS),e,7.2529,216.2411,131.7272,12.79826,0.0215267,0.64233566,15.2400,02/04.0/2021,2000,g 11.0,4.0
# From MPC118841
C/2018 R3 (Lemmon),e,69.7282,324.6389,112.8325,1668,0.0000145,0.99922722,0.0000,06/07.2304/2019,2000,g  9.5,4.0
# From MPC112393
C/2018 R4 (Fuls),e,11.6835,298.4373,345.2795,330.1865,0.0001643,0.99480945,0.0000,03/03.6397/2018,2000,g 14.0,4.0
# From MPC114603
C/2018 R5 (Lemmon),e,103.7481,171.1284,178.0497,22.78370,0.0090629,0.84097650,6.8516,02/04.0/2021,2000,g 11.5,4.0
# From MPEC 2021-BE3
C/2018 U1 (Lemmon),h,11/02.8589/2021,108.2980,75.4799,180.4345,1.001160,4.993362,2000,5.0,4.0
# From MPC114604
C/2018 V1 (Machholz-Fujikawa-Iwamoto),h,12/03.2960/2018,144.0533,128.8772,88.8406,1.000351,0.386183,2000,12.0,4.0
# From MPC115884
C/2018 V2 (ATLAS),e,159.1670,357.0768,318.9541,25.16605,0.0078070,0.90153436,6.2505,02/04.0/2021,2000,g 15.0,4.0
# From MPC114604
P/2018 VN2 (Leonard),e,18.2488,226.5134,138.7397,4.064673,0.1202723,0.47847144,117.1835,02/04.0/2021,2000,g 15.0,4.0
# From MPC117070
A/2018 V3,e,164.9781,308.6558,3.5191,121.7561,0.0007336,0.98899204,0.0000,09/08.6783/2019,2000,g 15.7,2.0
# From MPC114604
C/2018 V4 (Africano),e,69.0032,78.3657,359.9449,206.1542,0.0003330,0.98449086,0.0000,03/01.4233/2019,2000,g 12.5,4.0
# From MPC114604
P/2018 V5 (Trujillo-Sheppard),e,10.5852,171.2896,260.6979,8.954189,0.0367845,0.47460935,31.4573,02/04.0/2021,2000,g 12.5,4.0
# From MPC115884
C/2018 W1 (Catalina),e,83.2658,233.5939,251.2492,21.71392,0.0097408,0.93733798,6.1784,02/04.0/2021,2000,g 15.7,2.0
# From MPC119996
C/2018 W2 (Africano),h,09/05.6495/2019,116.6173,181.8499,157.9746,1.000435,1.455051,2000,9.5,4.0
# From MPC119996
C/2018 X2 (Fitzsimmons),e,23.0694,340.8276,162.0574,147.6328,0.0005495,0.98559571,0.0000,07/08.4271/2019,2000,g 12.0,4.0
# From MPC114604
C/2018 X3 (PANSTARRS),e,43.3711,78.9074,359.7576,12.37829,0.0226315,0.78216160,17.3455,02/04.0/2021,2000,g 14.5,4.0
# From MPC118842
C/2018 Y1 (Iwamoto),e,160.3996,147.5117,358.0231,141.0233,0.0005885,0.99088709,0.0000,02/07.0081/2019,2000,g 11.5,4.0
# From MPC114605
P/2018 Y2 (Africano),e,11.6827,297.2660,162.3580,7.462304,0.0483498,0.47862530,36.9518,02/04.0/2021,2000,g 11.5,4.0
# From MPC114605
P/2019 A1 (PANSTARRS),e,13.7442,312.3032,150.7903,5.123059,0.0849982,0.56833918,72.0204,02/04.0/2021,2000,g 16.0,4.0
# From MPC114605
P/2019 A2 (ATLAS),e,14.8606,139.4690,324.0648,5.722930,0.0719907,0.38134399,58.0563,02/04.0/2021,2000,g 10.5,4.0
# From MPC114605
P/2019 A3 (PANSTARRS),e,15.3671,31.3018,325.4918,3.146870,0.1765574,0.26554334,161.8607,02/04.0/2021,2000,g 16.0,4.0
# From MPC114605
P/2019 A4 (PANSTARRS),e,13.3205,119.2996,341.8096,2.614810,0.2331009,0.08850416,184.7526,02/04.0/2021,2000,g 15.0,4.0
# From MPC118842
C/2019 A5 (PANSTARRS),e,67.5579,146.6264,355.9733,21.58650,0.0098272,0.70709315,5.9591,02/04.0/2021,2000,g  9.5,4.0
# From MPC114605
P/2019 A6 (Lemmon-PANSTARRS),e,33.2306,280.2678,156.2121,5.362955,0.0793593,0.63897172,70.6196,02/04.0/2021,2000,g 16.0,4.0
# From MPC114605
P/2019 A7 (PANSTARRS),e,17.7746,280.5227,119.2614,3.185683,0.1733406,0.16112347,194.8179,02/04.0/2021,2000,g 13.5,4.0
# From MPC115884
P/2019 A8 (PANSTARRS),e,3.1379,127.6066,22.4904,3.349665,0.1607689,0.45979912,138.5098,02/04.0/2021,2000,g 16.0,4.0
# From MPC118842
C/2019 A9 (PANSTARRS),e,84.1885,278.3851,237.9590,39.75121,0.0039326,0.96400834,2.1963,02/04.0/2021,2000,g 15.0,4.0
# From MPC114606
C/2019 B1 (Africano),e,123.3637,290.4353,174.8444,145.9238,0.0005591,0.98905825,0.0000,03/19.7491/2019,2000,g 16.0,4.0
# From MPC115885
P/2019 B2 (Groeller),e,16.8423,176.2634,359.3263,3.864867,0.1297186,0.37320699,78.5712,02/04.0/2021,2000,g 14.5,4.0
# From MPC115885
C/2019 B3 (PANSTARRS),h,01/19.9979/2021,66.5388,358.4306,263.9043,1.002433,6.823631,2000,5.5,4.0
# From MPEC 2021-BE3
C/2019 C1 (ATLAS),e,36.0252,212.3885,319.1860,749.2268,0.0000481,0.99121601,0.0000,05/05.5682/2020,2000,g 10.0,4.0
# From MPC118842
C/2019 D1 (Flewelling),e,34.0800,231.7163,70.5252,141.5307,0.0005854,0.98884441,0.0000,05/11.8782/2019,2000,g 13.0,4.0
# From MPEC 2021-BE3
C/2019 E3 (ATLAS),h,11/12.6107/2023,84.2925,347.2425,280.6127,1.003889,10.314868,2000,2.5,4.0
# From MPEC 2021-BE3
C/2019 F1 (ATLAS-Africano),h,06/22.8117/2021,54.1754,38.7260,251.1200,1.003609,3.595760,2000,5.5,4.0
# From MPC119997
C/2019 F2 (ATLAS),e,19.2017,175.6851,11.3097,16.73096,0.0144020,0.86624474,7.4000,02/04.0/2021,2000,g 12.0,4.0
# From MPEC 2020-AA5
A/2019 G2,e,159.2075,208.1511,82.6340,664.2954,0.0000576,0.99655145,0.0000,12/09.9913/2019,2000,g 16.5,2.0
# From MPC118094
A/2019 G4,h,09/16.0410/2018,138.3866,130.4642,287.8837,1.001554,5.858322,2000,13.0,2.0
# From MPEC 2021-BE3
P/2019 GG21 (PANSTARRS),e,6.0756,340.5490,209.0251,7.487416,0.0481068,0.47432642,30.4043,02/04.0/2021,2000,g 12.0,4.0
# From MPC115885
C/2019 H1 (NEOWISE),e,104.5702,269.1961,19.3229,235.3164,0.0002730,0.99215565,0.0000,04/27.8044/2019,2000,g 15.5,4.0
# From MPC118842
C/2019 J1 (Lemmon),e,24.5505,98.0911,167.7870,69.69356,0.0016940,0.96442102,1.1296,02/04.0/2021,2000,g 12.0,4.0
# From MPC115885
C/2019 J2 (Palomar),e,105.1527,25.4806,98.7156,675.1891,0.0000562,0.99744179,0.0000,07/19.7040/2019,2000,g 13.0,4.0
# From MPC117071
C/2019 J3 (ATLAS),h,08/01.9603/2019,131.4115,270.5260,16.5846,1.000263,2.374306,2000,13.5,4.0
# From MPC117071
C/2019 JU6 (ATLAS),e,148.3045,21.7438,94.9066,338.4686,0.0001583,0.99395523,0.0000,05/31.8977/2019,2000,g 14.5,4.0
# From MPC119997
C/2019 K1 (ATLAS),h,02/12.9871/2020,87.1415,73.3774,265.7128,1.000034,2.012666,2000,10.0,4.0
# From MPC119997
C/2019 K4 (Ye),e,105.3019,180.1621,139.7736,1518,0.0000167,0.99851121,0.0000,06/16.2983/2019,2000,g 12.5,4.0
# From MPC119997
C/2019 K5 (Young),e,15.3152,177.1606,174.9718,157.9084,0.0004967,0.98710964,0.0000,06/22.8716/2019,2000,g 13.0,4.0
# From MPC117071
A/2019 K6,e,132.3782,42.9441,187.6308,1702,0.0000140,0.99769209,0.0000,05/20.2499/2020,2000,g 13.6,2.0
# From MPEC 2021-BE3
C/2019 K7 (Smith),e,103.5420,307.9290,27.3097,89754,0.0000000,0.99995014,0.0000,06/16.9819/2020,2000,g  6.0,4.0
# From MPC119997
